*******************************************************************************
JPL/HORIZONS                385 Ilmatar (A894 EA)          2020-Jun-22 08:57:47
Rec #:     385 (+COV) Soln.date: 2020-May-20_01:04:35   # obs: 2124 (1894-2020)
 
IAU76/J2000 helio. ecliptic osc. elements (au, days, deg., period=Julian yrs):
 
  EPOCH=  2453825.5 ! 2006-Mar-31.00 (TDB)         Residual RMS= .2852
   EC= .1266868290437736   QR= 2.486406567277428   TP= 2453276.3518136749
   OM= 345.2401504213996   W=  188.0987479531069   IN= 13.56556990724551
   A= 2.847096150576728    MA= 112.6653645459045   ADIST= 3.207785733876027
   PER= 4.80409            N= .20516386            ANGMOM= .02879182
   DAN= 3.20315            DDN= 2.4892             L= 173.1158455
   B= -1.8936527           MOID= 1.49303997        TP= 2004-Sep-27.8518136749
 
Asteroid physical parameters (km, seconds, rotational period in hours):
   GM= n.a.                RAD= 42.9185            ROTPER= 62.35
   H= 7.6                  G= .150                 B-V= .847
                           ALBEDO= .242            STYP= S
 
ASTEROID comments: 
1: soln ref.= JPL#95, OCC=0
2: source=ORB
*******************************************************************************
 
 
*******************************************************************************
Ephemeris / WWW_USER Mon Jun 22 08:57:47 2020 Pasadena, USA      / Horizons
*******************************************************************************
Target body name: 385 Ilmatar (A894 EA)           {source: JPL#95}
Center body name: Solar System Barycenter (0)     {source: DE431}
Center-site name: BODY CENTER
*******************************************************************************
Start time      : A.D. 1969-Jun-28 00:00:00.0000 TDB
Stop  time      : A.D. 2071-May-04 00:00:00.0000 TDB
Step-size       : 7200 minutes
*******************************************************************************
Center geodetic : 0.00000000,0.00000000,0.0000000 {E-lon(deg),Lat(deg),Alt(km)}
Center cylindric: 0.00000000,0.00000000,0.0000000 {E-lon(deg),Dxy(km),Dz(km)}
Center radii    : (undefined)                                                  
Small perturbers: Yes                             {source: SB431-N16}
Output units    : AU-D
Output type     : GEOMETRIC cartesian states
Output format   : 2 (position and velocity)
Reference frame : Ecliptic of J2000.0
*******************************************************************************
Initial IAU76/J2000 heliocentric ecliptic osculating elements (au, days, deg.):
  EPOCH=  2453825.5 ! 2006-Mar-31.00 (TDB)         Residual RMS= .2852         
   EC= .1266868290437736   QR= 2.486406567277428   TP= 2453276.3518136749      
   OM= 345.2401504213996   W=  188.0987479531069   IN= 13.56556990724551       
  Equivalent ICRF heliocentric equatorial cartesian coordinates (au, au/d):
   X= 1.458954644771044E+00  Y=-2.176310690651659E+00  Z=-1.505925863299579E+00
  VX= 8.837758786932692E-03 VY= 2.637254045471596E-03 VZ= 2.615457570944069E-03
Asteroid physical parameters (km, seconds, rotational period in hours):        
   GM= n.a.                RAD= 42.9185            ROTPER= 62.35               
   H= 7.6                  G= .150                 B-V= .847                   
                           ALBEDO= .242            STYP= S                     
*******************************************************************************
            JDTDB,            Calendar Date (TDB),        delta-T,                      X,                      Y,                      Z,                     VX,                     VY,                     VZ,
******************************************************************************************************************************************************************************************************************
$$SOE
2473440.500000000, A.D. 2059-Dec-13 00:00:00.0000,      69.183358,  3.150459196527337E+00, -5.995364196606713E-01,  6.750166104456304E-02,  1.662527283637125E-03,  8.549423778539478E-03,  2.099278399443313E-03,
2473445.500000000, A.D. 2059-Dec-18 00:00:00.0000,      69.183491,  3.158418805539287E+00, -5.567245021303507E-01,  7.799013000718001E-02,  1.521266249923317E-03,  8.575022323040598E-03,  2.096031172390780E-03,
2473450.500000000, A.D. 2059-Dec-23 00:00:00.0000,      69.183627,  3.165671374640306E+00, -5.137894072334466E-01,  8.846119330142199E-02,  1.379714582933252E-03,  8.598694383434182E-03,  2.092316264508663E-03,
2473455.500000000, A.D. 2059-Dec-28 00:00:00.0000,      69.183767,  3.172215499583337E+00, -4.707407725719884E-01,  9.891251449438887E-02,  1.237891843554979E-03,  8.620437875985104E-03,  2.088134461303332E-03,
2473460.500000000, A.D. 2060-Jan-02 00:00:00.0000,      69.183911,  3.178049873830664E+00, -4.275882463350692E-01,  1.093417610359277E-01,  1.095817556149427E-03,  8.640250649353155E-03,  2.083486530390370E-03,
2473465.500000000, A.D. 2060-Jan-07 00:00:00.0000,      69.184056,  3.183173288394158E+00, -3.843414876403259E-01,  1.197466041695737E-01,  9.535112177430691E-04,  8.658130483266106E-03,  2.078373221663053E-03,
2473470.500000000, A.D. 2060-Jan-12 00:00:00.0000,      69.184199,  3.187584631722143E+00, -3.410101668813340E-01,  1.301247188445090E-01,  8.109923074937423E-04,  8.674075087459933E-03,  2.072795267534025E-03,
2473475.500000000, A.D. 2060-Jan-17 00:00:00.0000,      69.184339,  3.191282889634308E+00, -2.976039660798845E-01,  1.404737836289357E-01,  6.682802964315804E-04,  8.688082100766686E-03,  2.066753383259229E-03,
2473480.500000000, A.D. 2060-Jan-22 00:00:00.0000,      69.184476,  3.194267145305807E+00, -2.541325792426657E-01,  1.507914806252582E-01,  5.253946573681193E-04,  8.700149090254114E-03,  2.060248267334509E-03,
2473485.500000000, A.D. 2060-Jan-27 00:00:00.0000,      69.184610,  3.196536579300922E+00, -2.106057127221504E-01,  1.610754953873763E-01,  3.823548747767917E-04,  8.710273550415959E-03,  2.053280601938644E-03,
2473490.500000000, A.D. 2060-Feb-01 00:00:00.0000,      69.184742,  3.198090469655709E+00, -1.670330855811104E-01,  1.713235168402703E-01,  2.391804544996628E-04,  8.718452902567423E-03,  2.045851053407663E-03,
2473495.500000000, A.D. 2060-Feb-06 00:00:00.0000,      69.184867,  3.198928192009022E+00, -1.234244299592216E-01,  1.815332372021047E-01,  9.589093345469348E-05,  8.724684494627453E-03,  2.037960272779811E-03,
2473500.500000000, A.D. 2060-Feb-11 00:00:00.0000,      69.184985,  3.199049219782887E+00, -7.978949143996014E-02,  1.917023519093605E-01, -4.749411029329501E-05,  8.728965601168964E-03,  2.029608896465129E-03,
2473505.500000000, A.D. 2060-Feb-16 00:00:00.0000,      69.185094,  3.198453124414118E+00, -3.613802941725142E-02,  2.018285595455756E-01, -1.909550471665277E-04,  8.731293423433338E-03,  2.020797547005489E-03,
2473510.500000000, A.D. 2060-Feb-21 00:00:00.0000,      69.185194,  3.197139575637483E+00,  7.520182537832801E-03,  2.119095617739243E-01, -3.344721858976851E-04,  8.731665089336805E-03,  2.011526833839688E-03,
2473515.500000000, A.D. 2060-Feb-26 00:00:00.0000,      69.185286,  3.195108341818901E+00,  5.117535631097572E-02,  2.219430632736039E-01, -4.780257636625973E-04,  8.730077653740157E-03,  2.001797354067959E-03,
2473520.500000000, A.D. 2060-Mar-02 00:00:00.0000,      69.185370,  3.192359290337669E+00,  9.481768888075270E-02,  2.319267716801319E-01, -6.215959363016801E-04,  8.726528099069809E-03,  1.991609693257233E-03,
2473525.500000000, A.D. 2060-Mar-07 00:00:00.0000,      69.185444,  3.188892388017696E+00,  1.384373619586413E-01,  2.418583975298192E-01, -7.651627684841828E-04,  8.721013336234493E-03,  1.980964426307385E-03,
2473530.500000000, A.D. 2060-Mar-12 00:00:00.0000,      69.185505,  3.184707701608095E+00,  1.820245416342559E-01,  2.517356542087261E-01, -9.087062238043054E-04,  8.713530205795402E-03,  1.969862118377606E-03,
2473535.500000000, A.D. 2060-Mar-17 00:00:00.0000,      69.185554,  3.179805398313429E+00,  2.255693780270345E-01,  2.615562579063943E-01, -1.052206154824209E-03,  8.704075479376015E-03,  1.958303325869823E-03,
2473540.500000000, A.D. 2060-Mar-22 00:00:00.0000,      69.185591,  3.174185746373853E+00,  2.690620049455835E-01,  2.713179275746360E-01, -1.195642293075586E-03,  8.692645861316777E-03,  1.946288597468121E-03,
2473545.500000000, A.D. 2060-Mar-27 00:00:00.0000,      69.185617,  3.167849115695343E+00,  3.124925395559220E-01,  2.810183848916610E-01, -1.338994239020650E-03,  8.679237990581325E-03,  1.933818475235297E-03,
2473550.500000000, A.D. 2060-Apr-01 00:00:00.0000,      69.185633,  3.160795978530240E+00,  3.558510820599030E-01,  2.906553542318367E-01, -1.482241451966486E-03,  8.663848442922647E-03,  1.920893495769413E-03,
2473555.500000000, A.D. 2060-Apr-06 00:00:00.0000,      69.185636,  3.153026910208359E+00,  3.991277153851298E-01,  3.002265626413885E-01, -1.625363239919605E-03,  8.646473733316654E-03,  1.907514191424894E-03,
2473560.500000000, A.D. 2060-Apr-11 00:00:00.0000,      69.185626,  3.144542589919022E+00,  4.423125048877155E-01,  3.097297398203803E-01, -1.768338749358508E-03,  8.627110318661101E-03,  1.893681091604072E-03,
2473565.500000000, A.D. 2060-Apr-16 00:00:00.0000,      69.185603,  3.135343801544465E+00,  4.853954980691635E-01,  3.191626181113366E-01, -1.911146954907538E-03,  8.605754600725653E-03,  1.879394724122296E-03,
2473570.500000000, A.D. 2060-Apr-21 00:00:00.0000,      69.185569,  3.125431434545127E+00,  5.283667243085141E-01,  3.285229324948581E-01, -2.053766648927059E-03,  8.582402929291095E-03,  1.864655616636439E-03,
2473575.500000000, A.D. 2060-Apr-26 00:00:00.0000,      69.185524,  3.114806484896890E+00,  5.712161946105535E-01,  3.378084205924575E-01, -2.196176431170982E-03,  8.557051605437620E-03,  1.849464298095753E-03,
